NORAD_CAT_ID,OBJECT_NAME,OBJECT_TYPE,EPOCH,MEAN_MOTION,ECCENTRICITY,INCLINATION,RA_OF_ASC_NODE,ARG_OF_PERICENTER,MEAN_ANOMALY,BSTAR,MEAN_MOTION_DOT,MEAN_MOTION_DDOT,TLE_LINE0,TLE_LINE1,TLE_LINE2,SEMIMAJOR_AXIS,PERIOD,APOGEE,PERIGEE,DECAYED
52560.0,STARLINK-3956,PAYLOAD,2024-06-14 11:01:49,15.08843356,0.0001342,53.2177,81.8044,97.9626,262.1519,6.3562e-05,7.24e-06,0.0,0 STARLINK-3956,1 52560U 22051AD  24166.45959866  .00000724  00000-0  63562-4 0  9998,2 52560  53.2177  81.8044 0001342  97.9626 262.1519 15.08843356115982,6917.87,95.437,540.664,538.807,0.0
52560.0,STARLINK-3956,PAYLOAD,2024-06-14 22:09:32,15.08834172,0.0001564,53.2198,79.7261,108.0104,252.1058,5.6872e-05,6.17e-06,0.0,0 STARLINK-3956,1 52560U 22051AD  24166.92328791  .00000617  00000-0  56872-4 0  9994,2 52560  53.2198  79.7261 0001564 108.0104 252.1058 15.08834172116055,6917.898,95.438,540.845,538.681,0.0
52560.0,STARLINK-3956,PAYLOAD,2024-06-15 01:20:18,15.08836516,0.000157,53.2197,79.1341,107.0784,253.0381,8.3754e-05,1.045e-05,0.0,0 STARLINK-3956,1 52560U 22051AD  24167.05576619  .00001045  00000-0  83754-4 0  9998,2 52560  53.2197  79.1341 0001570 107.0784 253.0381 15.08836516116072,6917.891,95.438,540.842,538.67,0.0
52560.0,STARLINK-3956,PAYLOAD,2024-06-15 22:00:19,15.08833784,0.0001381,53.218,75.2652,101.6637,258.451,1.7523e-05,-9e-08,0.0,0 STARLINK-3956,1 52560U 22051AD  24167.91689286 -.00000009  00000-0  17523-4 0  9999,2 52560  53.2180  75.2652 0001381 101.6637 258.4510 15.08833784116205,6917.899,95.438,540.72,538.809,0.0
52560.0,STARLINK-3956,PAYLOAD,2024-06-16 10:43:23,15.08844161,0.0001462,53.2187,72.887,91.4582,268.6578,9.4844e-05,1.222e-05,0.0,0 STARLINK-3956,1 52560U 22051AD  24168.44680507  .00001222  00000-0  94844-4 0  9993,2 52560  53.2187  72.8870 0001462  91.4582 268.6578 15.08844161116288,6917.868,95.437,540.744,538.721,0.0
52560.0,STARLINK-3956,PAYLOAD,2024-06-16 21:51:06,15.08834285,0.000164,53.2194,70.8043,84.4691,275.6488,8.3719e-05,1.044e-05,0.0,0 STARLINK-3956,1 52560U 22051AD  24168.91049381  .00001044  00000-0  83719-4 0  9995,2 52560  53.2194  70.8043 0001640  84.4691 275.6488 15.08834285116359,6917.898,95.438,540.897,538.628,0.0
52560.0,STARLINK-3956,PAYLOAD,2024-06-17 21:41:53,15.08840965,0.0001641,53.2192,66.3392,82.5722,277.5456,2.6341e-05,1.31e-06,0.0,0 STARLINK-3956,1 52560U 22051AD  24169.90409307  .00000131  00000-0  26341-4 0  9997,2 52560  53.2192  66.3392 0001641  82.5722 277.5456 15.08840965116571,6917.877,95.437,540.878,538.607,0.0
52560.0,STARLINK-3956,PAYLOAD,2024-06-17 23:17:16,15.08838254,0.0001321,53.2184,66.0436,82.7575,277.3567,1.0817e-05,-1.16e-06,0.0,0 STARLINK-3956,1 52560U 22051AD  24169.97033452 -.00000116  00000-0  10817-4 0  9993,2 52560  53.2184  66.0436 0001321  82.7575 277.3567 15.08838254116514,6917.886,95.438,540.665,538.837,0.0
52560.0,STARLINK-3956,PAYLOAD,2024-06-18 10:24:58,15.08847899,0.0001546,53.2185,63.9643,81.9995,278.1172,9.0998e-05,1.161e-05,0.0,0 STARLINK-3956,1 52560U 22051AD  24170.43400592  .00001161  00000-0  90998-4 0  9997,2 52560  53.2185  63.9643 0001546  81.9995 278.1172 15.08847899116658,6917.856,95.437,540.791,538.652,0.0
52560.0,STARLINK-3956,PAYLOAD,2024-06-18 23:08:02,15.08851156,0.0001389,53.2191,61.5823,90.5101,269.605,0.00018126,2.599e-05,0.0,0 STARLINK-3956,1 52560U 22051AD  24170.96391856  .00002599  00000-0  18126-3 0  9995,2 52560  53.2191  61.5823 0001389  90.5101 269.6050 15.08851156116661,6917.846,95.437,540.672,538.75,0.0
52560.0,STARLINK-3956,PAYLOAD,2024-06-19 10:15:44,15.08846777,0.0001215,53.2191,59.5014,95.2929,264.8201,5.3741e-05,5.68e-06,0.0,0 STARLINK-3956,1 52560U 22051AD  24171.42760232  .00000568  00000-0  53741-4 0  9992,2 52560  53.2191  59.5014 0001215  95.2929 264.8201 15.08846777116734,6917.86,95.437,540.565,538.884,0.0
52560.0,STARLINK-3956,PAYLOAD,2024-06-19 21:23:27,15.08833214,0.0001394,53.2184,57.4213,88.6345,271.4807,3.2179e-06,-2.37e-06,0.0,0 STARLINK-3956,1 52560U 22051AD  24171.89129321 -.00000237  00000-0  32179-5 0  9998,2 52560  53.2184  57.4213 0001394  88.6345 271.4807 15.08833214116873,6917.901,95.438,540.73,538.802,0.0
52560.0,STARLINK-3956,PAYLOAD,2024-06-20 22:49:37,15.08848237,0.0001608,53.2192,52.664,95.2533,264.8643,-2.5874e-05,-7e-06,0.0,0 STARLINK-3956,1 52560U 22051AD  24172.95112428 -.00000700  00000-0 -25874-4 0  9995,2 52560  53.2192  52.6640 0001608  95.2533 264.8643 15.08848237117038,6917.855,95.437,540.833,538.608,0.0
52560.0,STARLINK-3956,PAYLOAD,2024-06-21 21:05:02,15.08793029,0.000125,53.2186,48.5036,86.0919,274.0215,0.0006482,0.0001003,0.0,0 STARLINK-3956,1 52560U 22051AD  24173.87850448  .00010030  00000-0  64820-3 0  9996,2 52560  53.2186  48.5036 0001250  86.0919 274.0215 15.08793029117174,6918.024,95.441,540.754,539.024,0.0
52560.0,STARLINK-3956,PAYLOAD,2024-06-21 22:40:24,15.08835521,0.0001508,53.2186,48.2062,85.1615,274.9549,8.2287e-05,1.022e-05,0.0,0 STARLINK-3956,1 52560U 22051AD  24173.94473098  .00001022  00000-0  82287-4 0  9995,2 52560  53.2186  48.2062 0001508  85.1615 274.9549 15.08835521117116,6917.894,95.438,540.802,538.716,0.0
52560.0,STARLINK-3956,PAYLOAD,2024-06-22 14:34:16,15.08849326,0.0001516,53.2186,45.2343,84.3787,275.7378,-8.323e-05,-1.613e-05,0.0,0 STARLINK-3956,1 52560U 22051AD  24174.60713033 -.00001613  00000-0 -83230-4 0  9992,2 52560  53.2186  45.2343 0001516  84.3787 275.7378 15.08849326117213,6917.852,95.437,540.766,538.668,0.0
52560.0,STARLINK-3956,PAYLOAD,2024-06-22 20:55:49,15.08836695,0.0001353,53.218,44.0405,78.8212,281.2932,-2.7804e-06,-3.32e-06,0.0,0 STARLINK-3956,1 52560U 22051AD  24174.87209512 -.00000332  00000-0 -27804-5 0  9996,2 52560  53.2180  44.0405 0001353  78.8212 281.2932 15.08836695117250,6917.89,95.438,540.691,538.82,0.0
52560.0,STARLINK-3956,PAYLOAD,2024-06-23 14:25:03,15.08836013,0.0001367,53.2177,40.7697,94.1653,265.9495,1.4995e-05,-4.9e-07,0.0,0 STARLINK-3956,1 52560U 22051AD  24175.60073646 -.00000049  00000-0  14995-4 0  9995,2 52560  53.2177  40.7697 0001367  94.1653 265.9495 15.08836013117366,6917.893,95.438,540.703,538.812,0.0
52560.0,STARLINK-3956,PAYLOAD,2024-06-23 20:46:36,15.08838232,0.000137,53.2177,39.5805,93.3691,266.7458,3.1711e-05,2.17e-06,0.0,0 STARLINK-3956,1 52560U 22051AD  24175.86569497  .00000217  00000-0  31711-4 0  9998,2 52560  53.2177  39.5805 0001370  93.3691 266.7458 15.08838232117475,6917.886,95.438,540.699,538.803,0.0
52560.0,STARLINK-3956,PAYLOAD,2024-06-23 22:21:59,15.08840662,0.0001341,53.2177,39.2832,88.8159,271.2987,5.0618e-05,5.18e-06,0.0,0 STARLINK-3956,1 52560U 22051AD  24175.93193308  .00000518  00000-0  50618-4 0  9991,2 52560  53.2177  39.2832 0001341  88.8159 271.2987 15.08840662117410,6917.878,95.438,540.671,538.816,0.0
52560.0,STARLINK-3956,PAYLOAD,2024-06-23 23:57:21,15.08842496,0.0001395,53.218,38.9855,94.8519,265.2632,6.6225e-05,7.66e-06,0.0,0 STARLINK-3956,1 52560U 22051AD  24175.99817123  .00000766  00000-0  66225-4 0  9991,2 52560  53.2180  38.9855 0001395  94.8519 265.2632 15.08842496117429,6917.873,95.437,540.703,538.773,0.0
52560.0,STARLINK-3956,PAYLOAD,2024-06-24 20:37:23,15.08836939,0.0001431,53.218,35.1183,87.8909,272.2247,3.4018e-05,2.53e-06,0.0,0 STARLINK-3956,1 52560U 22051AD  24176.85929802  .00000253  00000-0  34018-4 0  9991,2 52560  53.2180  35.1183 0001431  87.8909 272.2247 15.08836939117557,6917.89,95.438,540.745,538.765,0.0
52560.0,STARLINK-3956,PAYLOAD,2024-06-25 20:28:10,15.08843081,0.0001621,53.2192,30.6587,85.7581,274.3597,3.7892e-05,3.15e-06,0.0,0 STARLINK-3956,1 52560U 22051AD  24177.85289551  .00000315  00000-0  37892-4 0  9994,2 52560  53.2192  30.6587 0001621  85.7581 274.3597 15.08843081117773,6917.871,95.437,540.857,538.615,0.0
52560.0,STARLINK-3956,PAYLOAD,2024-06-26 23:29:43,15.08845391,0.0001532,53.2182,25.6083,95.8344,264.2823,7.2378e-05,8.64e-06,0.0,0 STARLINK-3956,1 52560U 22051AD  24178.97897049  .00000864  00000-0  72378-4 0  9992,2 52560  53.2182  25.6083 0001532  95.8344 264.2823 15.08845391117942,6917.864,95.437,540.789,538.669,0.0
52560.0,STARLINK-3956,PAYLOAD,2024-06-27 07:26:39,15.0883829,0.0001259,53.2159,24.1181,74.2282,285.8849,2.5998e-05,1.26e-06,0.0,0 STARLINK-3956,1 52560U 22051AD  24179.31017611  .00000126  00000-0  25998-4 0  9997,2 52560  53.2159  24.1181 0001259  74.2282 285.8849 15.08838290117999,6917.886,95.438,540.622,538.88,0.0
52560.0,STARLINK-3956,PAYLOAD,2024-06-27 20:09:44,15.08838491,0.000161,53.2197,21.7389,92.3188,267.7989,-8.6954e-05,-1.672e-05,0.0,0 STARLINK-3956,1 52560U 22051AD  24179.84010131 -.00001672  00000-0 -86954-4 0  9993,2 52560  53.2197  21.7389 0001610  92.3188 267.7989 15.08838491118001,6917.885,95.438,540.864,538.636,0.0
52560.0,STARLINK-3956,PAYLOAD,2024-06-27 23:20:30,15.08843271,0.0001205,53.2165,21.1444,94.9234,265.1895,3.0065e-06,-2.4e-06,0.0,0 STARLINK-3956,1 52560U 22051AD  24179.97257542 -.00000240  00000-0  30065-5 0  9998,2 52560  53.2165  21.1444 0001205  94.9234 265.1895 15.08843271118024,6917.87,95.437,540.569,538.902,0.0
52560.0,STARLINK-3956,PAYLOAD,2024-06-28 18:25:07,15.0884702,0.0001741,53.2188,17.576,107.5425,252.5757,0.0002077,3.02e-05,0.0,0 STARLINK-3956,1 52560U 22051AD  24180.76744525  .00003020  00000-0  20770-3 0  9997,2 52560  53.2188  17.5760 0001741 107.5425 252.5757 15.08847020118211,6917.859,95.437,540.928,538.52,0.0
52560.0,STARLINK-3956,PAYLOAD,2024-06-28 23:11:15,15.08857687,0.0001387,53.2182,16.684,103.3642,256.7505,0.00028801,4.301e-05,0.0,0 STARLINK-3956,1 52560U 22051AD  24180.96615515  .00004301  00000-0  28801-3 0  9991,2 52560  53.2182  16.6840 0001387 103.3642 256.7505 15.08857687118245,6917.826,95.436,540.651,538.732,0.0
52560.0,STARLINK-3956,PAYLOAD,2024-06-29 13:29:47,15.08816051,0.0001424,53.2181,14.0079,105.3649,254.7501,-1.25e-06,-3.08e-06,0.0,0 STARLINK-3956,1 52560U 22051AD  24181.56235313 -.00000308  00000-0 -12500-5 0  9998,2 52560  53.2181  14.0079 0001424 105.3649 254.7501 15.08816051118335,6917.954,95.439,540.804,538.833,0.0
